start=new Date('2021-10-22T00:00:00.000Z').valueOf();
sats=[{"OBJECT_NAME":"STARLINK-1578","PERIOD":"95.592","CENTER_NAME":"EARTH","ECCENTRICITY":"0.00015250","RCS_SIZE":"LARGE","PERIAPSIS":"546.168","ELEMENT_SET_NO":"999","LAUNCH_DATE":"2020-08-07","EPOCH":"2021-10-21T18:58:41.664864","SEMIMAJOR_AXIS":"6925.359","ARG_OF_PERICENTER":"98.6474","TLE_LINE2":"2 46082  53.0540  78.8471 0001525  98.6474 261.4687 15.06396585 68168","MEAN_MOTION":"15.06396585","DECAY_DATE":null,"TLE_LINE1":"1 46082U 20055BH  21294.79076001 -.00000774  00000-0 -33041-4 0  9995","REV_AT_EPOCH":"6816","APOAPSIS":"548.280","MEAN_MOTION_DOT":"-0.00000774","EPHEMERIS_TYPE":"0","TIME_SYSTEM":"UTC","RA_OF_ASC_NODE":"78.8471","BSTAR":"-0.00003304100000","INCLINATION":"53.0540","MEAN_ELEMENT_THEORY":"SGP4","REF_FRAME":"TEME","OBJECT_TYPE":"PAYLOAD","COUNTRY_CODE":"US","NORAD_CAT_ID":"46082","CLASSIFICATION_TYPE":"U","MEAN_MOTION_DDOT":"0.0000000000000","GP_ID":"187837740","MEAN_ANOMALY":"261.4687","SITE":"AFETR","FILE":"3176920","OBJECT_ID":"2020-055BH"},{"GP_ID":"187838490","MEAN_MOTION_DDOT":"0.0000000000000","OBJECT_ID":"2020-055BJ","SITE":"AFETR","FILE":"3176920","MEAN_ANOMALY":"271.5553","REF_FRAME":"TEME","MEAN_ELEMENT_THEORY":"SGP4","BSTAR":"-0.00002107700000","INCLINATION":"53.0543","CLASSIFICATION_TYPE":"U","COUNTRY_CODE":"US","NORAD_CAT_ID":"46083","OBJECT_TYPE":"PAYLOAD","DECAY_DATE":null,"ARG_OF_PERICENTER":"88.5598","TLE_LINE2":"2 46083  53.0543  78.6790 0001411  88.5598 271.5553 15.06395494 68165","MEAN_MOTION":"15.06395494","EPOCH":"2021-10-21T19:51:45.681984","LAUNCH_DATE":"2020-08-07","SEMIMAJOR_AXIS":"6925.362","ELEMENT_SET_NO":"999","PERIAPSIS":"546.250","EPHEMERIS_TYPE":"0","TIME_SYSTEM":"UTC","RA_OF_ASC_NODE":"78.6790","APOAPSIS":"548.205","MEAN_MOTION_DOT":"-0.00000595","TLE_LINE1":"1 46083U 20055BJ  21294.82761206 -.00000595  00000-0 -21077-4 0  9995","REV_AT_EPOCH":"6816","CENTER_NAME":"EARTH","PERIOD":"95.592","OBJECT_NAME":"STARLINK-1579","RCS_SIZE":"LARGE","ECCENTRICITY":"0.00014110"},{"MEAN_MOTION_DDOT":"0.0000000000000","GP_ID":"187838991","SITE":"AFETR","FILE":"3176920","MEAN_ANOMALY":"289.1280","OBJECT_ID":"2020-057A","BSTAR":"-0.00000300800000","INCLINATION":"53.0552","REF_FRAME":"TEME","MEAN_ELEMENT_THEORY":"SGP4","COUNTRY_CODE":"US","NORAD_CAT_ID":"46117","OBJECT_TYPE":"PAYLOAD","CLASSIFICATION_TYPE":"U","SEMIMAJOR_AXIS":"6925.386","LAUNCH_DATE":"2020-08-18","EPOCH":"2021-10-21T15:52:54.796512","ELEMENT_SET_NO":"999","PERIAPSIS":"546.336","DECAY_DATE":null,"TLE_LINE2":"2 46117  53.0552 279.4336 0001321  70.9852 289.1280 15.06387822 65185","MEAN_MOTION":"15.06387822","ARG_OF_PERICENTER":"70.9852","APOAPSIS":"548.166","MEAN_MOTION_DOT":"-0.00000326","REV_AT_EPOCH":"6518","TLE_LINE1":"1 46117U 20057A   21294.66174533 -.00000326  00000-0 -30080-5 0  9995","TIME_SYSTEM":"UTC","EPHEMERIS_TYPE":"0","RA_OF_ASC_NODE":"279.4336","OBJECT_NAME":"STARLINK-1585","CENTER_NAME":"EARTH","PERIOD":"95.593","ECCENTRICITY":"0.00013210","RCS_SIZE":"LARGE"},{"ECCENTRICITY":"0.00016820","RCS_SIZE":"LARGE","OBJECT_NAME":"STARLINK-1588","CENTER_NAME":"EARTH","PERIOD":"95.593","APOAPSIS":"548.400","MEAN_MOTION_DOT":"-0.00002127","TLE_LINE1":"1 46118U 20057B   21294.40557545 -.00002127  00000-0 -12392-3 0  9991","REV_AT_EPOCH":"6552","TIME_SYSTEM":"UTC","EPHEMERIS_TYPE":"0","RA_OF_ASC_NODE":"300.5859","LAUNCH_DATE":"2020-08-18","EPOCH":"2021-10-21T09:44:01.718880","SEMIMAJOR_AXIS":"6925.370","ELEMENT_SET_NO":"999","PERIAPSIS":"546.070","DECAY_DATE":null,"MEAN_MOTION":"15.06393061","TLE_LINE2":"2 46118  53.0534 300.5859 0001682  87.9658 272.1523 15.06393061 65526","ARG_OF_PERICENTER":"87.9658","COUNTRY_CODE":"US","NORAD_CAT_ID":"46118","OBJECT_TYPE":"PAYLOAD","CLASSIFICATION_TYPE":"U","BSTAR":"-0.00012392000000","INCLINATION":"53.0534","REF_FRAME":"TEME","MEAN_ELEMENT_THEORY":"SGP4","SITE":"AFETR","FILE":"3176806","MEAN_ANOMALY":"272.1523","OBJECT_ID":"2020-057B","MEAN_MOTION_DDOT":"0.0000000000000","GP_ID":"187818638"},{"RA_OF_ASC_NODE":"300.9274","TIME_SYSTEM":"UTC","EPHEMERIS_TYPE":"0","APOAPSIS":"548.126","MEAN_MOTION_DOT":"-0.00000052","TLE_LINE1":"1 46119U 20057C   21294.32816604 -.00000052  00000-0  15409-4 0  9994","REV_AT_EPOCH":"6611","DECAY_DATE":null,"TLE_LINE2":"2 46119  53.0552 300.9274 0001339  75.6178 284.4960 15.06404886 66117","ARG_OF_PERICENTER":"75.6178","MEAN_MOTION":"15.06404886","EPOCH":"2021-10-21T07:52:33.545856","LAUNCH_DATE":"2020-08-18","SEMIMAJOR_AXIS":"6925.334","PERIAPSIS":"546.271","ELEMENT_SET_NO":"999","RCS_SIZE":"LARGE","ECCENTRICITY":"0.00013390","CENTER_NAME":"EARTH","PERIOD":"95.592","OBJECT_NAME":"STARLINK-1593","OBJECT_ID":"2020-057C","FILE":"3176553","SITE":"AFETR","MEAN_ANOMALY":"284.4960","GP_ID":"187808848","MEAN_MOTION_DDOT":"0.0000000000000","CLASSIFICATION_TYPE":"U","NORAD_CAT_ID":"46119","COUNTRY_CODE":"US","OBJECT_TYPE":"PAYLOAD","REF_FRAME":"TEME","MEAN_ELEMENT_THEORY":"SGP4","INCLINATION":"53.0552","BSTAR":"0.00001540900000"},{"CLASSIFICATION_TYPE":"U","OBJECT_TYPE":"PAYLOAD","NORAD_CAT_ID":"46120","COUNTRY_CODE":"US","MEAN_ELEMENT_THEORY":"SGP4","REF_FRAME":"TEME","INCLINATION":"53.0548","BSTAR":"-0.00003196100000","OBJECT_ID":"2020-057D","MEAN_ANOMALY":"297.1924","FILE":"3176920","SITE":"AFETR","GP_ID":"187839246","MEAN_MOTION_DDOT":"0.0000000000000","RCS_SIZE":"LARGE","ECCENTRICITY":"0.00015050","PERIOD":"95.592","CENTER_NAME":"EARTH","OBJECT_NAME":"STARLINK-1601","RA_OF_ASC_NODE":"299.2047","TIME_SYSTEM":"UTC","EPHEMERIS_TYPE":"0","TLE_LINE1":"1 46120U 20057D   21294.71150397 -.00000758  00000-0 -31961-4 0  9994","REV_AT_EPOCH":"6619","MEAN_MOTION_DOT":"-0.00000758","APOAPSIS":"548.236","TLE_LINE2":"2 46120  53.0548 299.2047 0001505  62.9219 297.1924 15.06406306 66190","MEAN_MOTION":"15.06406306","ARG_OF_PERICENTER":"62.9219","DECAY_DATE":null,"PERIAPSIS":"546.152","ELEMENT_SET_NO":"999","LAUNCH_DATE":"2020-08-18","SEMIMAJOR_AXIS":"6925.329","EPOCH":"2021-10-21T17:04:33.943008"},{"DECAY_DATE":null,"MEAN_MOTION":"15.06389655","TLE_LINE2":"2 46121  53.0544 279.3461 0001543  66.1164 293.9986 15.06389655 65180","ARG_OF_PERICENTER":"66.1164","LAUNCH_DATE":"2020-08-18","EPOCH":"2021-10-21T16:19:27.276384","SEMIMAJOR_AXIS":"6925.380","ELEMENT_SET_NO":"999","PERIAPSIS":"546.177","RA_OF_ASC_NODE":"279.3461","TIME_SYSTEM":"UTC","EPHEMERIS_TYPE":"0","MEAN_MOTION_DOT":"-0.00000460","APOAPSIS":"548.314","REV_AT_EPOCH":"6518","TLE_LINE1":"1 46121U 20057E   21294.68017681 -.00000460  00000-0 -12000-4 0  9992","CENTER_NAME":"EARTH","PERIOD":"95.593","OBJECT_NAME":"STARLINK-1602","RCS_SIZE":"LARGE","ECCENTRICITY":"0.00015430","GP_ID":"187839491","MEAN_MOTION_DDOT":"0.0000000000000","OBJECT_ID":"2020-057E","FILE":"3176920","SITE":"AFETR","MEAN_ANOMALY":"293.9986","REF_FRAME":"TEME","MEAN_ELEMENT_THEORY":"SGP4","INCLINATION":"53.0544","BSTAR":"-0.00001200000000","CLASSIFICATION_TYPE":"U","NORAD_CAT_ID":"46121","COUNTRY_CODE":"US","OBJECT_TYPE":"PAYLOAD"},{"MEAN_MOTION_DOT":"0.00000051","APOAPSIS":"548.165","REV_AT_EPOCH":"6671","TLE_LINE1":"1 46122U 20057F   21294.62303873  .00000051  00000-0  22331-4 0  9990","RA_OF_ASC_NODE":"259.5964","EPHEMERIS_TYPE":"0","TIME_SYSTEM":"UTC","LAUNCH_DATE":"2020-08-18","EPOCH":"2021-10-21T14:57:10.546272","SEMIMAJOR_AXIS":"6925.321","PERIAPSIS":"546.206","ELEMENT_SET_NO":"999","DECAY_DATE":null,"ARG_OF_PERICENTER":"64.9047","TLE_LINE2":"2 46122  53.0537 259.5964 0001414  64.9047 295.2089 15.06409096 66715","MEAN_MOTION":"15.06409096","ECCENTRICITY":"0.00014140","RCS_SIZE":"LARGE","OBJECT_NAME":"STARLINK-1604","CENTER_NAME":"EARTH","PERIOD":"95.592","FILE":"3176920","SITE":"AFETR","MEAN_ANOMALY":"295.2089","OBJECT_ID":"2020-057F","MEAN_MOTION_DDOT":"0.0000000000000","GP_ID":"187837745","NORAD_CAT_ID":"46122","COUNTRY_CODE":"US","OBJECT_TYPE":"PAYLOAD","CLASSIFICATION_TYPE":"U","INCLINATION":"53.0537","BSTAR":"0.00002233100000","REF_FRAME":"TEME","MEAN_ELEMENT_THEORY":"SGP4"},{"TIME_SYSTEM":"UTC","EPHEMERIS_TYPE":"0","RA_OF_ASC_NODE":"259.6655","MEAN_MOTION_DOT":"-0.00001022","APOAPSIS":"548.252","REV_AT_EPOCH":"6673","TLE_LINE1":"1 46123U 20057G   21294.60829825 -.00001022  00000-0 -49759-4 0  9993","DECAY_DATE":null,"TLE_LINE2":"2 46123  53.0543 259.6655 0001486  73.1889 286.9263 15.06396949 66731","ARG_OF_PERICENTER":"73.1889","MEAN_MOTION":"15.06396949","SEMIMAJOR_AXIS":"6925.358","LAUNCH_DATE":"2020-08-18","EPOCH":"2021-10-21T14:35:56.968800","ELEMENT_SET_NO":"999","PERIAPSIS":"546.194","RCS_SIZE":"LARGE","ECCENTRICITY":"0.00014860","CENTER_NAME":"EARTH","PERIOD":"95.592","OBJECT_NAME":"STARLINK-1605","OBJECT_ID":"2020-057G","SITE":"AFETR","FILE":"3176920","MEAN_ANOMALY":"286.9263","GP_ID":"187838996","MEAN_MOTION_DDOT":"0.0000000000000","CLASSIFICATION_TYPE":"U","COUNTRY_CODE":"US","NORAD_CAT_ID":"46123","OBJECT_TYPE":"PAYLOAD","REF_FRAME":"TEME","MEAN_ELEMENT_THEORY":"SGP4","BSTAR":"-0.00004975900000","INCLINATION":"53.0543"},{"CLASSIFICATION_TYPE":"U","COUNTRY_CODE":"US","NORAD_CAT_ID":"46124","OBJECT_TYPE":"PAYLOAD","REF_FRAME":"TEME","MEAN_ELEMENT_THEORY":"SGP4","BSTAR":"-0.00011668000000","INCLINATION":"53.0548","OBJECT_ID":"2020-057H","SITE":"AFETR","FILE":"3176920","MEAN_ANOMALY":"292.2859","GP_ID":"187838747","MEAN_MOTION_DDOT":"0.0000000000000","RCS_SIZE":"LARGE","ECCENTRICITY":"0.00015050","CENTER_NAME":"EARTH","PERIOD":"95.592","OBJECT_NAME":"STARLINK-1614","TIME_SYSTEM":"UTC","EPHEMERIS_TYPE":"0","RA_OF_ASC_NODE":"259.6364","APOAPSIS":"548.270","MEAN_MOTION_DOT":"-0.00002019","TLE_LINE1":"1 46124U 20057H   21294.61567371 -.00002019  00000-0 -11668-3 0  9994","REV_AT_EPOCH":"6546","DECAY_DATE":null,"TLE_LINE2":"2 46124  53.0548 259.6364 0001505  67.8290 292.2859 15.06395235 65469","MEAN_MOTION":"15.06395235","ARG_OF_PERICENTER":"67.8290","LAUNCH_DATE":"2020-08-18","EPOCH":"2021-10-21T14:46:34.208544","SEMIMAJOR_AXIS":"6925.363","ELEMENT_SET_NO":"999","PERIAPSIS":"546.186"}];
